[{"OBJECT_NAME":"INMARSAT 4-F2 (SOUTHPAN/PRN 122)","OBJECT_ID":"2005-044A","EPOCH":"2026-03-14T09:01:51.417984","MEAN_MOTION":1.00271367,"ECCENTRICITY":0.00027425,"INCLINATION":4.9701,"RA_OF_ASC_NODE":43.7929,"ARG_OF_PERICENTER":334.9327,"MEAN_ANOMALY":72.2242,"EPHEMERIS_TYPE":0,"CLASSIFICATION_TYPE":"U","NORAD_CAT_ID":28899,"ELEMENT_SET_NO":999,"REV_AT_EPOCH":7457,"BSTAR":0,"MEAN_MOTION_DOT":-2.58e-6,"MEAN_MOTION_DDOT":0},{"OBJECT_NAME":"GSAT-8 (GAGAN/PRN 127)","OBJECT_ID":"2011-022A","EPOCH":"2026-03-14T13:54:18.618624","MEAN_MOTION":1.00270917,"ECCENTRICITY":0.00068626,"INCLINATION":1.8849,"RA_OF_ASC_NODE":83.0143,"ARG_OF_PERICENTER":216.9892,"MEAN_ANOMALY":135.832,"EPHEMERIS_TYPE":0,"CLASSIFICATION_TYPE":"U","NORAD_CAT_ID":37605,"ELEMENT_SET_NO":999,"REV_AT_EPOCH":5226,"BSTAR":0,"MEAN_MOTION_DOT":8.5e-7,"MEAN_MOTION_DDOT":0},{"OBJECT_NAME":"LUCH 5A (SDCM/PRN 140)","OBJECT_ID":"2011-074B","EPOCH":"2026-03-14T07:35:29.220288","MEAN_MOTION":1.00268954,"ECCENTRICITY":0.00034012,"INCLINATION":8.5116,"RA_OF_ASC_NODE":75.1968,"ARG_OF_PERICENTER":262.5594,"MEAN_ANOMALY":115.1508,"EPHEMERIS_TYPE":0,"CLASSIFICATION_TYPE":"U","NORAD_CAT_ID":37951,"ELEMENT_SET_NO":999,"REV_AT_EPOCH":5210,"BSTAR":0,"MEAN_MOTION_DOT":-4.5e-7,"MEAN_MOTION_DDOT":0},{"OBJECT_NAME":"SES-5 (EGNOS/PRN 136)","OBJECT_ID":"2012-036A","EPOCH":"2026-03-13T08:52:38.561664","MEAN_MOTION":1.00273267,"ECCENTRICITY":0.00019334,"INCLINATION":0.0621,"RA_OF_ASC_NODE":308.2644,"ARG_OF_PERICENTER":45.9498,"MEAN_ANOMALY":314.9176,"EPHEMERIS_TYPE":0,"CLASSIFICATION_TYPE":"U","NORAD_CAT_ID":38652,"ELEMENT_SET_NO":999,"REV_AT_EPOCH":4349,"BSTAR":0,"MEAN_MOTION_DOT":3.4e-7,"MEAN_MOTION_DDOT":0},{"OBJECT_NAME":"GSAT-10 (GAGAN/PRN 128)","OBJECT_ID":"2012-051B","EPOCH":"2026-03-14T14:02:17.852640","MEAN_MOTION":1.00272446,"ECCENTRICITY":0.00050796,"INCLINATION":0.0494,"RA_OF_ASC_NODE":256.0223,"ARG_OF_PERICENTER":184.4125,"MEAN_ANOMALY":25.3436,"EPHEMERIS_TYPE":0,"CLASSIFICATION_TYPE":"U","NORAD_CAT_ID":38779,"ELEMENT_SET_NO":999,"REV_AT_EPOCH":4914,"BSTAR":0,"MEAN_MOTION_DOT":-1.66e-6,"MEAN_MOTION_DDOT":0},{"OBJECT_NAME":"LUCH 5B (SDCM/PRN 125)","OBJECT_ID":"2012-061A","EPOCH":"2026-03-14T05:00:29.085408","MEAN_MOTION":1.0027198,"ECCENTRICITY":0.00032173,"INCLINATION":10.2786,"RA_OF_ASC_NODE":50.8054,"ARG_OF_PERICENTER":227.4516,"MEAN_ANOMALY":312.3743,"EPHEMERIS_TYPE":0,"CLASSIFICATION_TYPE":"U","NORAD_CAT_ID":38977,"ELEMENT_SET_NO":999,"REV_AT_EPOCH":4865,"BSTAR":0,"MEAN_MOTION_DOT":-1.32e-6,"MEAN_MOTION_DDOT":0},{"OBJECT_NAME":"ASTRA 5B (EGNOS/PRN 123)","OBJECT_ID":"2014-011B","EPOCH":"2026-03-13T15:30:26.765568","MEAN_MOTION":1.00275464,"ECCENTRICITY":0.00034177,"INCLINATION":0.0979,"RA_OF_ASC_NODE":295.8843,"ARG_OF_PERICENTER":40.8961,"MEAN_ANOMALY":90.6232,"EPHEMERIS_TYPE":0,"CLASSIFICATION_TYPE":"U","NORAD_CAT_ID":39617,"ELEMENT_SET_NO":999,"REV_AT_EPOCH":4370,"BSTAR":0,"MEAN_MOTION_DOT":1.37e-6,"MEAN_MOTION_DDOT":0},{"OBJECT_NAME":"LUCH 5V (SDCM/PRN 141)","OBJECT_ID":"2014-023A","EPOCH":"2026-03-14T16:23:13.566624","MEAN_MOTION":1.00268817,"ECCENTRICITY":0.0003135,"INCLINATION":4.8991,"RA_OF_ASC_NODE":70.6656,"ARG_OF_PERICENTER":297.7893,"MEAN_ANOMALY":144.3232,"EPHEMERIS_TYPE":0,"CLASSIFICATION_TYPE":"U","NORAD_CAT_ID":39727,"ELEMENT_SET_NO":999,"REV_AT_EPOCH":4341,"BSTAR":0,"MEAN_MOTION_DOT":-2.66e-6,"MEAN_MOTION_DDOT":0},{"OBJECT_NAME":"GSAT-15 (GAGAN/PRN 139)","OBJECT_ID":"2015-065A","EPOCH":"2026-03-14T16:01:18.370272","MEAN_MOTION":1.00271606,"ECCENTRICITY":0.00015568,"INCLINATION":0.066,"RA_OF_ASC_NODE":269.2519,"ARG_OF_PERICENTER":126.1691,"MEAN_ANOMALY":110.6848,"EPHEMERIS_TYPE":0,"CLASSIFICATION_TYPE":"U","NORAD_CAT_ID":41028,"ELEMENT_SET_NO":999,"REV_AT_EPOCH":3785,"BSTAR":0,"MEAN_MOTION_DOT":-2.59e-6,"MEAN_MOTION_DDOT":0},{"OBJECT_NAME":"EUTELSAT 117 WEST B (WAAS/PRN 131)","OBJECT_ID":"2016-038B","EPOCH":"2026-03-14T07:16:38.506080","MEAN_MOTION":1.00272184,"ECCENTRICITY":2.59e-5,"INCLINATION":0.0416,"RA_OF_ASC_NODE":6.7202,"ARG_OF_PERICENTER":285.2785,"MEAN_ANOMALY":232.0791,"EPHEMERIS_TYPE":0,"CLASSIFICATION_TYPE":"U","NORAD_CAT_ID":41589,"ELEMENT_SET_NO":999,"REV_AT_EPOCH":3571,"BSTAR":0,"MEAN_MOTION_DOT":-1.2e-7,"MEAN_MOTION_DDOT":0},{"OBJECT_NAME":"SES-15 (WAAS/PRN 133)","OBJECT_ID":"2017-026A","EPOCH":"2026-03-12T14:49:13.423008","MEAN_MOTION":1.00270524,"ECCENTRICITY":7.066e-5,"INCLINATION":0.0388,"RA_OF_ASC_NODE":330.9168,"ARG_OF_PERICENTER":38.8107,"MEAN_ANOMALY":253.6487,"EPHEMERIS_TYPE":0,"CLASSIFICATION_TYPE":"U","NORAD_CAT_ID":42709,"ELEMENT_SET_NO":999,"REV_AT_EPOCH":646,"BSTAR":0,"MEAN_MOTION_DOT":6.0e-7,"MEAN_MOTION_DDOT":0},{"OBJECT_NAME":"QZS-2 (QZSS/PRN 194)","OBJECT_ID":"2017-028A","EPOCH":"2026-03-14T08:14:39.132672","MEAN_MOTION":1.0025939,"ECCENTRICITY":0.07444661,"INCLINATION":39.5754,"RA_OF_ASC_NODE":244.534,"ARG_OF_PERICENTER":270.4251,"MEAN_ANOMALY":281.8153,"EPHEMERIS_TYPE":0,"CLASSIFICATION_TYPE":"U","NORAD_CAT_ID":42738,"ELEMENT_SET_NO":999,"REV_AT_EPOCH":667,"BSTAR":0,"MEAN_MOTION_DOT":-1.34e-6,"MEAN_MOTION_DDOT":0},{"OBJECT_NAME":"QZS-3 (QZSS/PRN 199)","OBJECT_ID":"2017-048A","EPOCH":"2026-03-14T14:14:54.143808","MEAN_MOTION":1.00271124,"ECCENTRICITY":0.00023212,"INCLINATION":0.0571,"RA_OF_ASC_NODE":197.4468,"ARG_OF_PERICENTER":174.1687,"MEAN_ANOMALY":141.3567,"EPHEMERIS_TYPE":0,"CLASSIFICATION_TYPE":"U","NORAD_CAT_ID":42917,"ELEMENT_SET_NO":999,"REV_AT_EPOCH":3131,"BSTAR":0,"MEAN_MOTION_DOT":-3.49e-6,"MEAN_MOTION_DDOT":0},{"OBJECT_NAME":"QZS-4 (QZSS/PRN 195)","OBJECT_ID":"2017-062A","EPOCH":"2026-03-14T11:46:22.238688","MEAN_MOTION":1.00278341,"ECCENTRICITY":0.07479966,"INCLINATION":40.1667,"RA_OF_ASC_NODE":344.6961,"ARG_OF_PERICENTER":270.0324,"MEAN_ANOMALY":234.5669,"EPHEMERIS_TYPE":0,"CLASSIFICATION_TYPE":"U","NORAD_CAT_ID":42965,"ELEMENT_SET_NO":999,"REV_AT_EPOCH":3085,"BSTAR":0,"MEAN_MOTION_DOT":-2.95e-6,"MEAN_MOTION_DDOT":0},{"OBJECT_NAME":"BEIDOU-3 G1 (PRN 130)","OBJECT_ID":"2018-085A","EPOCH":"2026-03-13T07:30:13.029120","MEAN_MOTION":1.00265903,"ECCENTRICITY":0.00020953,"INCLINATION":2.8312,"RA_OF_ASC_NODE":100.0786,"ARG_OF_PERICENTER":8.4898,"MEAN_ANOMALY":314.822,"EPHEMERIS_TYPE":0,"CLASSIFICATION_TYPE":"U","NORAD_CAT_ID":43683,"ELEMENT_SET_NO":999,"REV_AT_EPOCH":2709,"BSTAR":0,"MEAN_MOTION_DOT":-2.79e-6,"MEAN_MOTION_DDOT":0},{"OBJECT_NAME":"EUTELSAT 5 WEST B (EGNOS/PRN 121)","OBJECT_ID":"2019-067A","EPOCH":"2026-03-14T08:29:09.075264","MEAN_MOTION":1.00271709,"ECCENTRICITY":0.00031885,"INCLINATION":0.0796,"RA_OF_ASC_NODE":323.2366,"ARG_OF_PERICENTER":41.8374,"MEAN_ANOMALY":289.1747,"EPHEMERIS_TYPE":0,"CLASSIFICATION_TYPE":"U","NORAD_CAT_ID":44624,"ELEMENT_SET_NO":999,"REV_AT_EPOCH":2348,"BSTAR":0,"MEAN_MOTION_DOT":-4.3e-7,"MEAN_MOTION_DDOT":0},{"OBJECT_NAME":"BEIDOU-3 G2 (PRN 144)","OBJECT_ID":"2020-017A","EPOCH":"2026-03-14T14:01:25.437216","MEAN_MOTION":1.00272419,"ECCENTRICITY":0.00027233,"INCLINATION":2.6734,"RA_OF_ASC_NODE":45.7481,"ARG_OF_PERICENTER":322.7412,"MEAN_ANOMALY":94.1144,"EPHEMERIS_TYPE":0,"CLASSIFICATION_TYPE":"U","NORAD_CAT_ID":45344,"ELEMENT_SET_NO":999,"REV_AT_EPOCH":2231,"BSTAR":0,"MEAN_MOTION_DOT":-1.39e-6,"MEAN_MOTION_DDOT":0}]
